SHIYAN-1 (SY-1)         
1 28220U 04012A   26068.73650539  .00016393  00000+0  54854-3 0  9991
2 28220  97.8764 140.5238 0005873  23.6952 336.4557 15.31043463195862
STARLINK-34430          
1 64456U 25130U   26068.34254953  .00021893  00000+0  74907-3 0  9995
2 64456  53.1585  89.8799 0001518  88.3204 271.7971 15.30202130 40650
